{"type": "FeatureCollection", "features": [ {"type": "Feature", "properties": {"norad_id": 44542, "name": "BEIDOU-3 M24 (C46)", "group": "gnss", "lat": -27.111609683721177, "lon": 167.8309732809375, "alt_km": 21517.46696511826, "timestamp": "2025-12-03T04:52:29.881073+00:00", "meta": {"OBJECT_NAME": "BEIDOU-3 M24 (C46)", "OBJECT_ID": "2019-061A", "EPOCH": "2025-12-01T02:32:46.252896", "MEAN_MOTION": 1.86229258, "ECCENTRICITY": 0.00095598, "INCLINATION": 54.4002, "RA_OF_ASC_NODE": 189.409, "ARG_OF_PERICENTER": 23.5384, "MEAN_ANOMALY": 336.5991, "EPHEMERIS_TYPE": 0, "CLASSIFICATION_TYPE": "U", "NORAD_CAT_ID": 44542, "ELEMENT_SET_NO": 999, "REV_AT_EPOCH": 4210, "BSTAR": 0, "MEAN_MOTION_DOT": 1.18e-06, "MEAN_MOTION_DDOT": 0}, "tle": {"line1": "1 44542U 19061A   25335.10609089  .00000118  00000+0  00000+0 0  9995", "line2": "2 44542  54.4002 189.4090 0009559  23.5384 336.5991  1.86229258 42106"}}, "geometry": {"type": "Point", "coordinates": [167.8309732809375, -27.111609683721177]}}, {"type": "Feature", "properties": {"norad_id": 44543, "name": "BEIDOU-3 M23 (C45)", "group": "gnss", "lat": -44.0694980462487, "lon": 53.22330466849086, "alt_km": 21546.582995612574, "timestamp": "2025-12-03T04:52:29.881085+00:00", "meta": {"OBJECT_NAME": "BEIDOU-3 M23 (C45)", "OBJECT_ID": "2019-061B", "EPOCH": "2025-12-02T01:08:19.108032", "MEAN_MOTION": 1.86229309, "ECCENTRICITY": 0.00060105, "INCLINATION": 54.3988, "RA_OF_ASC_NODE": 189.3457, "ARG_OF_PERICENTER": 20.9817, "MEAN_ANOMALY": 163.1206, "EPHEMERIS_TYPE": 0, "CLASSIFICATION_TYPE": "U", "NORAD_CAT_ID": 44543, "ELEMENT_SET_NO": 999, "REV_AT_EPOCH": 4212, "BSTAR": 0, "MEAN_MOTION_DOT": 1.21e-06, "MEAN_MOTION_DDOT": 0}, "tle": {"line1": "1 44543U 19061B   25336.04744338  .00000121  00000+0  00000+0 0  9991", "line2": "2 44543  54.3988 189.3457 0006010  20.9817 163.1206  1.86229309 42128"}}, "geometry": {"type": "Point", "coordinates": [53.22330466849086, -44.0694980462487]}}, {"type": "Feature", "properties": {"norad_id": 44624, "name": "EUTELSAT 5 WEST B (EGNOS/PRN 121)", "group": "gnss", "lat": 0.006903291673874329, "lon": 140.36910843011765, "alt_km": 35791.72079089179, "timestamp": "2025-12-03T04:52:29.881096+00:00", "meta": {"OBJECT_NAME": "EUTELSAT 5 WEST B (EGNOS/PRN 121)", "OBJECT_ID": "2019-067A", "EPOCH": "2025-12-02T18:48:38.705184", "MEAN_MOTION": 1.00272705, "ECCENTRICITY": 0.000367, "INCLINATION": 0.0722, "RA_OF_ASC_NODE": 327.0579, "ARG_OF_PERICENTER": 285.6861, "MEAN_ANOMALY": 96.3127, "EPHEMERIS_TYPE": 0, "CLASSIFICATION_TYPE": "U", "NORAD_CAT_ID": 44624, "ELEMENT_SET_NO": 999, "REV_AT_EPOCH": 2246, "BSTAR": 0, "MEAN_MOTION_DOT": -2.2e-07, "MEAN_MOTION_DDOT": 0}, "tle": {"line1": "1 44624U 19067A   25336.78378131 -.00000022  00000+0  00000+0 0  9993", "line2": "2 44624   0.0722 327.0579 0003670 285.6861  96.3127  1.00272705 22464"}}, "geometry": {"type": "Point", "coordinates": [140.36910843011765, 0.006903291673874329]}}, {"type": "Feature", "properties": {"norad_id": 44709, "name": "BEIDOU-3 IGSO-3 (C40)", "group": "gnss", "lat": -18.66884916933882, "lon": -90.62401526533723, "alt_km": 35950.99696719935, "timestamp": "2025-12-03T04:52:29.881108+00:00", "meta": {"OBJECT_NAME": "BEIDOU-3 IGSO-3 (C40)", "OBJECT_ID": "2019-073A", "EPOCH": "2025-11-20T07:11:22.740000", "MEAN_MOTION": 1.00250097, "ECCENTRICITY": 0.0044538, "INCLINATION": 55.163, "RA_OF_ASC_NODE": 283.159, "ARG_OF_PERICENTER": 191.5856, "MEAN_ANOMALY": 168.2409, "EPHEMERIS_TYPE": 0, "CLASSIFICATION_TYPE": "U", "NORAD_CAT_ID": 44709, "ELEMENT_SET_NO": 999, "REV_AT_EPOCH": 2236, "BSTAR": 0, "MEAN_MOTION_DOT": -2.06e-06, "MEAN_MOTION_DDOT": 0}, "tle": {"line1": "1 44709U 19073A   25324.29956875 -.00000206  00000+0  00000+0 0  9998", "line2": "2 44709  55.1630 283.1590 0044538 191.5856 168.2409  1.00250097 22360"}}, "geometry": {"type": "Point", "coordinates": [-90.62401526533723, -18.66884916933882]}}, {"type": "Feature", "properties": {"norad_id": 44793, "name": "BEIDOU-3 M22 (C44)", "group": "gnss", "lat": 50.873624929100195, "lon": 9.51672073014609, "alt_km": 21511.98941827039, "timestamp": "2025-12-03T04:52:29.881121+00:00", "meta": {"OBJECT_NAME": "BEIDOU-3 M22 (C44)", "OBJECT_ID": "2019-078A", "EPOCH": "2025-12-02T00:28:58.554624", "MEAN_MOTION": 1.86231817, "ECCENTRICITY": 0.00056333, "INCLINATION": 54.1183, "RA_OF_ASC_NODE": 306.7625, "ARG_OF_PERICENTER": 22.616, "MEAN_ANOMALY": 337.398, "EPHEMERIS_TYPE": 0, "CLASSIFICATION_TYPE": "U", "NORAD_CAT_ID": 44793, "ELEMENT_SET_NO": 999, "REV_AT_EPOCH": 4097, "BSTAR": 0, "MEAN_MOTION_DOT": -6.1e-07, "MEAN_MOTION_DDOT": 0}, "tle": {"line1": "1 44793U 19078A   25336.02012216 -.00000061  00000+0  00000+0 0  9991", "line2": "2 44793  54.1183 306.7625 0005633  22.6160 337.3980  1.86231817 40974"}}, "geometry": {"type": "Point", "coordinates": [9.51672073014609, 50.873624929100195]}}, {"type": "Feature", "properties": {"norad_id": 44794, "name": "BEIDOU-3 M21 (C43)", "group": "gnss", "lat": -15.301079699902886, "lon": -64.76431858960076, "alt_km": 21521.149658157603, "timestamp": "2025-12-03T04:52:29.881132+00:00", "meta": {"OBJECT_NAME": "BEIDOU-3 M21 (C43)", "OBJECT_ID": "2019-078B", "EPOCH": "2025-12-01T02:00:26.030304", "MEAN_MOTION": 1.86227539, "ECCENTRICITY": 0.00038706, "INCLINATION": 54.0922, "RA_OF_ASC_NODE": 306.7607, "ARG_OF_PERICENTER": 10.0971, "MEAN_ANOMALY": 349.9036, "EPHEMERIS_TYPE": 0, "CLASSIFICATION_TYPE": "U", "NORAD_CAT_ID": 44794, "ELEMENT_SET_NO": 999, "REV_AT_EPOCH": 4096, "BSTAR": 0, "MEAN_MOTION_DOT": -5.7e-07, "MEAN_MOTION_DDOT": 0}, "tle": {"line1": "1 44794U 19078B   25335.08363461 -.00000057  00000+0  00000+0 0  9993", "line2": "2 44794  54.0922 306.7607 0003870  10.0971 349.9036  1.86227539 40963"}}, "geometry": {"type": "Point", "coordinates": [-64.76431858960076, -15.301079699902886]}}, {"type": "Feature", "properties": {"norad_id": 44850, "name": "COSMOS 2544 (759)", "group": "gnss", "lat": -58.33534264288084, "lon": -52.008620331413574, "alt_km": 19101.388649105826, "timestamp": "2025-12-03T04:52:29.881146+00:00", "meta": {"OBJECT_NAME": "COSMOS 2544 (759)", "OBJECT_ID": "2019-088A", "EPOCH": "2025-12-02T09:48:35.344224", "MEAN_MOTION": 2.13101818, "ECCENTRICITY": 0.00136693, "INCLINATION": 65.4544, "RA_OF_ASC_NODE": 80.304, "ARG_OF_PERICENTER": 248.8168, "MEAN_ANOMALY": 111.0338, "EPHEMERIS_TYPE": 0, "CLASSIFICATION_TYPE": "U", "NORAD_CAT_ID": 44850, "ELEMENT_SET_NO": 999, "REV_AT_EPOCH": 4652, "BSTAR": 0, "MEAN_MOTION_DOT": -1.9e-07, "MEAN_MOTION_DDOT": 0}, "tle": {"line1": "1 44850U 19088A   25336.40874241 -.00000019  00000+0  00000+0 0  9995", "line2": "2 44850  65.4544  80.3040 0013669 248.8168 111.0338  2.13101818 46527"}}, "geometry": {"type": "Point", "coordinates": [-52.008620331413574, -58.33534264288084]}}, {"type": "Feature", "properties": {"norad_id": 44864, "name": "BEIDOU-3 M19 (C41)", "group": "gnss", "lat": 2.8981116243086786, "lon": -112.64817965641755, "alt_km": 21543.241381560885, "timestamp": "2025-12-03T04:52:29.881159+00:00", "meta": {"OBJECT_NAME": "BEIDOU-3 M19 (C41)", "OBJECT_ID": "2019-090A", "EPOCH": "2025-12-01T20:54:26.017344", "MEAN_MOTION": 1.86231094, "ECCENTRICITY": 0.00175122, "INCLINATION": 56.3837, "RA_OF_ASC_NODE": 69.3227, "ARG_OF_PERICENTER": 284.7988, "MEAN_ANOMALY": 78.8343, "EPHEMERIS_TYPE": 0, "CLASSIFICATION_TYPE": "U", "NORAD_CAT_ID": 44864, "ELEMENT_SET_NO": 999, "REV_AT_EPOCH": 4056, "BSTAR": 0, "MEAN_MOTION_DOT": -4.4e-07, "MEAN_MOTION_DDOT": 0}, "tle": {"line1": "1 44864U 19090A   25335.87113446 -.00000044  00000+0  00000+0 0  9994", "line2": "2 44864  56.3837  69.3227 0017512 284.7988  78.8343  1.86231094 40563"}}, "geometry": {"type": "Point", "coordinates": [-112.64817965641755, 2.8981116243086786]}}, {"type": "Feature", "properties": {"norad_id": 44865, "name": "BEIDOU-3 M20 (C42)", "group": "gnss", "lat": -56.22114860785789, "lon": -27.508871065449984, "alt_km": 21499.143891366628, "timestamp": "2025-12-03T04:52:29.881172+00:00", "meta": {"OBJECT_NAME": "BEIDOU-3 M20 (C42)", "OBJECT_ID": "2019-090B", "EPOCH": "2025-12-02T19:15:49.919904", "MEAN_MOTION": 1.86231044, "ECCENTRICITY": 0.0014683, "INCLINATION": 56.3861, "RA_OF_ASC_NODE": 69.3259, "ARG_OF_PERICENTER": 297.6742, "MEAN_ANOMALY": 60.1134, "EPHEMERIS_TYPE": 0, "CLASSIFICATION_TYPE": "U", "NORAD_CAT_ID": 44865, "ELEMENT_SET_NO": 999, "REV_AT_EPOCH": 4055, "BSTAR": 0, "MEAN_MOTION_DOT": -4.8e-07, "MEAN_MOTION_DDOT": 0}, "tle": {"line1": "1 44865U 19090B   25336.80266111 -.00000048  00000+0  00000+0 0  9991", "line2": "2 44865  56.3861  69.3259 0014683 297.6742  60.1134  1.86231044 40559"}}, "geometry": {"type": "Point", "coordinates": [-27.508871065449984, -56.22114860785789]}}, {"type": "Feature", "properties": {"norad_id": 45344, "name": "BEIDOU-3 G2 (C60)", "group": "gnss", "lat": -0.12029427305676232, "lon": -134.60057282612743, "alt_km": 35783.69179778234, "timestamp": "2025-12-03T04:52:29.881186+00:00", "meta": {"OBJECT_NAME": "BEIDOU-3 G2 (C60)", "OBJECT_ID": "2020-017A", "EPOCH": "2025-12-02T20:23:54.777120", "MEAN_MOTION": 1.00270362, "ECCENTRICITY": 0.0004575, "INCLINATION": 2.9813, "RA_OF_ASC_NODE": 43.5541, "ARG_OF_PERICENTER": 263.6834, "MEAN_ANOMALY": 150.7452, "EPHEMERIS_TYPE": 0, "CLASSIFICATION_TYPE": "U", "NORAD_CAT_ID": 45344, "ELEMENT_SET_NO": 999, "REV_AT_EPOCH": 2129, "BSTAR": 0, "MEAN_MOTION_DOT": -1.23e-06, "MEAN_MOTION_DDOT": 0}, "tle": {"line1": "1 45344U 20017A   25336.84993955 -.00000123  00000+0  00000+0 0  9996", "line2": "2 45344   2.9813  43.5541 0004575 263.6834 150.7452  1.00270362 21299"}}, "geometry": {"type": "Point", "coordinates": [-134.60057282612743, -0.12029427305676232]}}]}